KUIPER-00035            
1 63748U 25088AA  25222.25001157  .00022139  00000+0  23732-2 0  9990
2 63748  51.8943 329.2756 0005359 108.8731  15.4466 14.88553807 16196
KUIPER-00037            
1 63749U 25088AB  25222.25001157 -.00019045  00000+0 -19476-2 0  9995
2 63749  51.8942 328.3576 0005554  49.4792  38.7251 14.89739471 16992
KUIPER-00038            
1 63750U 25088AC  25222.25001157 -.00958755  00000+0 -38487-1 0  9999
2 63750  51.8785 319.2328 0005292 112.6917 185.0517 15.27046903 16113
KUIPER-00039            
1 64500U 25134A   25221.39784471  .00026389  00000+0  76478-3 0  9997
2 64500  51.8687 104.8182 0007525 279.4032  80.6103 15.35348458  8453
KUIPER-00040            
1 64501U 25134B   25222.00002315  .00011353  00000+0  61590-3 0  9991
2 64501  51.8780 104.2257 0013163 290.6975  88.2345 15.14932248  8052
KUIPER-00041            
1 64502U 25134C   25222.25001157 -.00532775  00000+0 -33262-1 0  9993
2 64502  51.8892 103.4379 0009437 290.5506 146.2264 15.11228987  8084
KUIPER-00042            
1 64503U 25134D   25222.25001157 -.00515728  00000+0 -26952-1 0  9991
2 64503  51.8764 101.9497 0010910 293.4567 210.4769 15.17773853  8104
KUIPER-00043            
1 64504U 25134E   25221.40239654  .00025192  00000+0  74197-3 0  9998
2 64504  51.8708 104.8537 0007986 281.1673  78.8415 15.34863495  8454
