<?xml version="1.0" encoding="UTF-8"?>
<ndm xmlns:xsi="http://www.w3.org/2001/XMLSchema-instance" xsi:noNamespaceSchemaLocation="https://sanaregistry.org/r/ndmxml_unqualified/ndmxml-2.0.0-master-2.0.xsd">
<omm id="CCSDS_OMM_VERS" version="2.0">
<header><CREATION_DATE/><ORIGINATOR/></header><body><segment><metadata><OBJECT_NAME>KUIPER-00035</OBJECT_NAME><OBJECT_ID>2025-088AA</OBJECT_ID><CENTER_NAME>EARTH</CENTER_NAME><REF_FRAME>TEME</REF_FRAME><TIME_SYSTEM>UTC</TIME_SYSTEM><MEAN_ELEMENT_THEORY>SGP4</MEAN_ELEMENT_THEORY></metadata><data><meanElements><EPOCH>2025-08-10T06:00:00.999648</EPOCH><MEAN_MOTION>14.88553807</MEAN_MOTION><ECCENTRICITY>.0005359</ECCENTRICITY><INCLINATION>51.8943</INCLINATION><RA_OF_ASC_NODE>329.2756</RA_OF_ASC_NODE><ARG_OF_PERICENTER>108.8731</ARG_OF_PERICENTER><MEAN_ANOMALY>15.4466</MEAN_ANOMALY></meanElements><tleParameters><EPHEMERIS_TYPE>0</EPHEMERIS_TYPE><CLASSIFICATION_TYPE>U</CLASSIFICATION_TYPE><NORAD_CAT_ID>63748</NORAD_CAT_ID><ELEMENT_SET_NO>999</ELEMENT_SET_NO><REV_AT_EPOCH>1619</REV_AT_EPOCH><BSTAR>.23732E-2</BSTAR><MEAN_MOTION_DOT>.22139E-3</MEAN_MOTION_DOT><MEAN_MOTION_DDOT>0</MEAN_MOTION_DDOT></tleParameters></data></segment></body></omm>
<omm id="CCSDS_OMM_VERS" version="2.0">
<header><CREATION_DATE/><ORIGINATOR/></header><body><segment><metadata><OBJECT_NAME>KUIPER-00037</OBJECT_NAME><OBJECT_ID>2025-088AB</OBJECT_ID><CENTER_NAME>EARTH</CENTER_NAME><REF_FRAME>TEME</REF_FRAME><TIME_SYSTEM>UTC</TIME_SYSTEM><MEAN_ELEMENT_THEORY>SGP4</MEAN_ELEMENT_THEORY></metadata><data><meanElements><EPOCH>2025-08-10T06:00:00.999648</EPOCH><MEAN_MOTION>14.89739471</MEAN_MOTION><ECCENTRICITY>.0005554</ECCENTRICITY><INCLINATION>51.8942</INCLINATION><RA_OF_ASC_NODE>328.3576</RA_OF_ASC_NODE><ARG_OF_PERICENTER>49.4792</ARG_OF_PERICENTER><MEAN_ANOMALY>38.7251</MEAN_ANOMALY></meanElements><tleParameters><EPHEMERIS_TYPE>0</EPHEMERIS_TYPE><CLASSIFICATION_TYPE>U</CLASSIFICATION_TYPE><NORAD_CAT_ID>63749</NORAD_CAT_ID><ELEMENT_SET_NO>999</ELEMENT_SET_NO><REV_AT_EPOCH>1699</REV_AT_EPOCH><BSTAR>-.19476E-2</BSTAR><MEAN_MOTION_DOT>-.19045E-3</MEAN_MOTION_DOT><MEAN_MOTION_DDOT>0</MEAN_MOTION_DDOT></tleParameters></data></segment></body></omm>
<omm id="CCSDS_OMM_VERS" version="2.0">
<header><CREATION_DATE/><ORIGINATOR/></header><body><segment><metadata><OBJECT_NAME>KUIPER-00038</OBJECT_NAME><OBJECT_ID>2025-088AC</OBJECT_ID><CENTER_NAME>EARTH</CENTER_NAME><REF_FRAME>TEME</REF_FRAME><TIME_SYSTEM>UTC</TIME_SYSTEM><MEAN_ELEMENT_THEORY>SGP4</MEAN_ELEMENT_THEORY></metadata><data><meanElements><EPOCH>2025-08-10T06:00:00.999648</EPOCH><MEAN_MOTION>15.27046903</MEAN_MOTION><ECCENTRICITY>.0005292</ECCENTRICITY><INCLINATION>51.8785</INCLINATION><RA_OF_ASC_NODE>319.2328</RA_OF_ASC_NODE><ARG_OF_PERICENTER>112.6917</ARG_OF_PERICENTER><MEAN_ANOMALY>185.0517</MEAN_ANOMALY></meanElements><tleParameters><EPHEMERIS_TYPE>0</EPHEMERIS_TYPE><CLASSIFICATION_TYPE>U</CLASSIFICATION_TYPE><NORAD_CAT_ID>63750</NORAD_CAT_ID><ELEMENT_SET_NO>999</ELEMENT_SET_NO><REV_AT_EPOCH>1611</REV_AT_EPOCH><BSTAR>-.38487E-1</BSTAR><MEAN_MOTION_DOT>-.958755E-2</MEAN_MOTION_DOT><MEAN_MOTION_DDOT>0</MEAN_MOTION_DDOT></tleParameters></data></segment></body></omm>
<omm id="CCSDS_OMM_VERS" version="2.0">
<header><CREATION_DATE/><ORIGINATOR/></header><body><segment><metadata><OBJECT_NAME>KUIPER-00039</OBJECT_NAME><OBJECT_ID>2025-134A</OBJECT_ID><CENTER_NAME>EARTH</CENTER_NAME><REF_FRAME>TEME</REF_FRAME><TIME_SYSTEM>UTC</TIME_SYSTEM><MEAN_ELEMENT_THEORY>SGP4</MEAN_ELEMENT_THEORY></metadata><data><meanElements><EPOCH>2025-08-09T09:32:53.782944</EPOCH><MEAN_MOTION>15.35348458</MEAN_MOTION><ECCENTRICITY>.0007525</ECCENTRICITY><INCLINATION>51.8687</INCLINATION><RA_OF_ASC_NODE>104.8182</RA_OF_ASC_NODE><ARG_OF_PERICENTER>279.4032</ARG_OF_PERICENTER><MEAN_ANOMALY>80.6103</MEAN_ANOMALY></meanElements><tleParameters><EPHEMERIS_TYPE>0</EPHEMERIS_TYPE><CLASSIFICATION_TYPE>U</CLASSIFICATION_TYPE><NORAD_CAT_ID>64500</NORAD_CAT_ID><ELEMENT_SET_NO>999</ELEMENT_SET_NO><REV_AT_EPOCH>845</REV_AT_EPOCH><BSTAR>.76478E-3</BSTAR><MEAN_MOTION_DOT>.26389E-3</MEAN_MOTION_DOT><MEAN_MOTION_DDOT>0</MEAN_MOTION_DDOT></tleParameters></data></segment></body></omm>
<omm id="CCSDS_OMM_VERS" version="2.0">
<header><CREATION_DATE/><ORIGINATOR/></header><body><segment><metadata><OBJECT_NAME>KUIPER-00040</OBJECT_NAME><OBJECT_ID>2025-134B</OBJECT_ID><CENTER_NAME>EARTH</CENTER_NAME><REF_FRAME>TEME</REF_FRAME><TIME_SYSTEM>UTC</TIME_SYSTEM><MEAN_ELEMENT_THEORY>SGP4</MEAN_ELEMENT_THEORY></metadata><data><meanElements><EPOCH>2025-08-10T00:00:02.000160</EPOCH><MEAN_MOTION>15.14932248</MEAN_MOTION><ECCENTRICITY>.0013163</ECCENTRICITY><INCLINATION>51.8780</INCLINATION><RA_OF_ASC_NODE>104.2257</RA_OF_ASC_NODE><ARG_OF_PERICENTER>290.6975</ARG_OF_PERICENTER><MEAN_ANOMALY>88.2345</MEAN_ANOMALY></meanElements><tleParameters><EPHEMERIS_TYPE>0</EPHEMERIS_TYPE><CLASSIFICATION_TYPE>U</CLASSIFICATION_TYPE><NORAD_CAT_ID>64501</NORAD_CAT_ID><ELEMENT_SET_NO>999</ELEMENT_SET_NO><REV_AT_EPOCH>805</REV_AT_EPOCH><BSTAR>.6159E-3</BSTAR><MEAN_MOTION_DOT>.11353E-3</MEAN_MOTION_DOT><MEAN_MOTION_DDOT>0</MEAN_MOTION_DDOT></tleParameters></data></segment></body></omm>
<omm id="CCSDS_OMM_VERS" version="2.0">
<header><CREATION_DATE/><ORIGINATOR/></header><body><segment><metadata><OBJECT_NAME>KUIPER-00041</OBJECT_NAME><OBJECT_ID>2025-134C</OBJECT_ID><CENTER_NAME>EARTH</CENTER_NAME><REF_FRAME>TEME</REF_FRAME><TIME_SYSTEM>UTC</TIME_SYSTEM><MEAN_ELEMENT_THEORY>SGP4</MEAN_ELEMENT_THEORY></metadata><data><meanElements><EPOCH>2025-08-10T06:00:00.999648</EPOCH><MEAN_MOTION>15.11228987</MEAN_MOTION><ECCENTRICITY>.0009437</ECCENTRICITY><INCLINATION>51.8892</INCLINATION><RA_OF_ASC_NODE>103.4379</RA_OF_ASC_NODE><ARG_OF_PERICENTER>290.5506</ARG_OF_PERICENTER><MEAN_ANOMALY>146.2264</MEAN_ANOMALY></meanElements><tleParameters><EPHEMERIS_TYPE>0</EPHEMERIS_TYPE><CLASSIFICATION_TYPE>U</CLASSIFICATION_TYPE><NORAD_CAT_ID>64502</NORAD_CAT_ID><ELEMENT_SET_NO>999</ELEMENT_SET_NO><REV_AT_EPOCH>808</REV_AT_EPOCH><BSTAR>-.33262E-1</BSTAR><MEAN_MOTION_DOT>-.532775E-2</MEAN_MOTION_DOT><MEAN_MOTION_DDOT>0</MEAN_MOTION_DDOT></tleParameters></data></segment></body></omm>
<omm id="CCSDS_OMM_VERS" version="2.0">
<header><CREATION_DATE/><ORIGINATOR/></header><body><segment><metadata><OBJECT_NAME>KUIPER-00042</OBJECT_NAME><OBJECT_ID>2025-134D</OBJECT_ID><CENTER_NAME>EARTH</CENTER_NAME><REF_FRAME>TEME</REF_FRAME><TIME_SYSTEM>UTC</TIME_SYSTEM><MEAN_ELEMENT_THEORY>SGP4</MEAN_ELEMENT_THEORY></metadata><data><meanElements><EPOCH>2025-08-10T06:00:00.999648</EPOCH><MEAN_MOTION>15.17773853</MEAN_MOTION><ECCENTRICITY>.001091</ECCENTRICITY><INCLINATION>51.8764</INCLINATION><RA_OF_ASC_NODE>101.9497</RA_OF_ASC_NODE><ARG_OF_PERICENTER>293.4567</ARG_OF_PERICENTER><MEAN_ANOMALY>210.4769</MEAN_ANOMALY></meanElements><tleParameters><EPHEMERIS_TYPE>0</EPHEMERIS_TYPE><CLASSIFICATION_TYPE>U</CLASSIFICATION_TYPE><NORAD_CAT_ID>64503</NORAD_CAT_ID><ELEMENT_SET_NO>999</ELEMENT_SET_NO><REV_AT_EPOCH>810</REV_AT_EPOCH><BSTAR>-.26952E-1</BSTAR><MEAN_MOTION_DOT>-.515728E-2</MEAN_MOTION_DOT><MEAN_MOTION_DDOT>0</MEAN_MOTION_DDOT></tleParameters></data></segment></body></omm>
<omm id="CCSDS_OMM_VERS" version="2.0">
<header><CREATION_DATE/><ORIGINATOR/></header><body><segment><metadata><OBJECT_NAME>KUIPER-00043</OBJECT_NAME><OBJECT_ID>2025-134E</OBJECT_ID><CENTER_NAME>EARTH</CENTER_NAME><REF_FRAME>TEME</REF_FRAME><TIME_SYSTEM>UTC</TIME_SYSTEM><MEAN_ELEMENT_THEORY>SGP4</MEAN_ELEMENT_THEORY></metadata><data><meanElements><EPOCH>2025-08-09T09:39:27.061056</EPOCH><MEAN_MOTION>15.34863495</MEAN_MOTION><ECCENTRICITY>.0007986</ECCENTRICITY><INCLINATION>51.8708</INCLINATION><RA_OF_ASC_NODE>104.8537</RA_OF_ASC_NODE><ARG_OF_PERICENTER>281.1673</ARG_OF_PERICENTER><MEAN_ANOMALY>78.8415</MEAN_ANOMALY></meanElements><tleParameters><EPHEMERIS_TYPE>0</EPHEMERIS_TYPE><CLASSIFICATION_TYPE>U</CLASSIFICATION_TYPE><NORAD_CAT_ID>64504</NORAD_CAT_ID><ELEMENT_SET_NO>999</ELEMENT_SET_NO><REV_AT_EPOCH>845</REV_AT_EPOCH><BSTAR>.74197E-3</BSTAR><MEAN_MOTION_DOT>.25192E-3</MEAN_MOTION_DOT><MEAN_MOTION_DDOT>0</MEAN_MOTION_DDOT></tleParameters></data></segment></body></omm>

</ndm>
